ONEWEB-0342             
1 49208U 21083Y   25210.39968023  .00000070  00000+0  14000-3 0  9991
2 49208  87.9282 338.7466 0001961  94.7773 265.3584 13.20772260194177
ONEWEB-0343             
1 49209U 21083Z   25210.88909899  .00000004  00000+0 -21431-4 0  9997
2 49209  87.9126  39.4708 0001585  70.1106 290.0196 13.18687766188854
ONEWEB-0344             
1 49210U 21083AA  25210.88862144 -.00000285  00000+0 -81645-3 0  9994
2 49210  87.8966  24.3069 0001350  87.5617 272.5667 13.13469270189884
ONEWEB-0345             
1 49211U 21083AB  25210.49927056 -.00000134  00000+0 -40286-3 0  9995
2 49211  87.8964  24.3362 0001308  86.5348 273.5930 13.13468339188543
ONEWEB-0346             
1 49212U 21083AC  25210.59465927  .00000005  00000+0 -20360-4 0  9999
2 49212  87.9126  39.5516 0001848 109.1858 250.9475 13.18686334187466
ONEWEB-0348             
1 49213U 21083AD  25210.39020444  .00000103  00000+0  22234-3 0  9998
2 49213  87.9286 338.7590 0001446 113.7145 246.4140 13.20773252194202
ONEWEB-0350             
1 49214U 21083AE  25210.88946097 -.00000454  00000+0 -12794-2 0  9994
2 49214  87.8966  24.2498 0001459  90.6390 269.4906 13.13469280189923
ONEWEB-0351             
1 49215U 21083AF  25210.61103080  .00000138  00000+0  30803-3 0  9992
2 49215  87.9294 338.6979 0002126  75.1535 284.9833 13.20773026194196
ONEWEB-0352             
1 49216U 21083AG  25210.87000452  .00000122  00000+0  30051-3 0  9998
2 49216  87.8966  24.2955 0001938  78.0164 282.1183 13.13469169190011
ONEWEB-0354             
1 49217U 21083AH  25210.86368234  .00000007  00000+0 -15466-4 0  9990
2 49217  87.9294 338.6466 0001575 100.7573 259.3738 13.20771025195573
ONEWEB-0355             
1 49218U 21083AJ  25210.51802615 -.00000208  00000+0 -60569-3 0  9996
2 49218  87.8969  24.3643 0001668  84.3822 275.7497 13.13471354188542
ONEWEB-0357             
1 49219U 21083AK  25210.40598839 -.00000066  00000+0 -19362-3 0  9992
2 49219  87.9284 338.7417 0001809  92.5762 267.5579 13.20771091194205
ONEWEB-0332             
1 49279U 21090A   25210.85981353  .00000165  00000+0  41166-3 0  9997
2 49279  87.9068 353.8577 0002030  92.1234 268.0129 13.14503913185232
ONEWEB-0347             
1 49280U 21090B   25210.39651428  .00000100  00000+0  21360-3 0  9998
2 49280  87.9290 338.7537 0002262  98.5465 261.5925 13.20771071188438
ONEWEB-0349             
1 49281U 21090C   25210.42808702  .00000039  00000+0  63328-4 0  9994
2 49281  87.9282 338.7522 0001820  95.3902 264.7439 13.20770342187225
ONEWEB-0353             
1 49282U 21090D   25210.85188292  .00000218  00000+0  55381-3 0  9995
2 49282  87.9068 353.8462 0002068  94.3661 265.7705 13.14503838186521
ONEWEB-0356             
1 49283U 21090E   25210.42650272 -.00000011  00000+0 -58050-4 0  9991
2 49283  87.9286 338.7432 0002331 120.1208 240.0156 13.20771291187222
