[{"OBJECT_NAME":"ONEWEB-0342","OBJECT_ID":"2021-083Y","EPOCH":"2025-07-29T09:35:32.371872","MEAN_MOTION":13.2077226,"ECCENTRICITY":0.0001961,"INCLINATION":87.9282,"RA_OF_ASC_NODE":338.7466,"ARG_OF_PERICENTER":94.7773,"MEAN_ANOMALY":265.3584,"EPHEMERIS_TYPE":0,"CLASSIFICATION_TYPE":"U","NORAD_CAT_ID":49208,"ELEMENT_SET_NO":999,"REV_AT_EPOCH":19417,"BSTAR":0.00014,"MEAN_MOTION_DOT":7.0e-7,"MEAN_MOTION_DDOT":0},{"OBJECT_NAME":"ONEWEB-0343","OBJECT_ID":"2021-083Z","EPOCH":"2025-07-29T21:20:18.152736","MEAN_MOTION":13.18687766,"ECCENTRICITY":0.0001585,"INCLINATION":87.9126,"RA_OF_ASC_NODE":39.4708,"ARG_OF_PERICENTER":70.1106,"MEAN_ANOMALY":290.0196,"EPHEMERIS_TYPE":0,"CLASSIFICATION_TYPE":"U","NORAD_CAT_ID":49209,"ELEMENT_SET_NO":999,"REV_AT_EPOCH":18885,"BSTAR":-2.1431e-5,"MEAN_MOTION_DOT":4.0e-8,"MEAN_MOTION_DDOT":0},{"OBJECT_NAME":"ONEWEB-0344","OBJECT_ID":"2021-083AA","EPOCH":"2025-07-29T21:19:36.892416","MEAN_MOTION":13.1346927,"ECCENTRICITY":0.000135,"INCLINATION":87.8966,"RA_OF_ASC_NODE":24.3069,"ARG_OF_PERICENTER":87.5617,"MEAN_ANOMALY":272.5667,"EPHEMERIS_TYPE":0,"CLASSIFICATION_TYPE":"U","NORAD_CAT_ID":49210,"ELEMENT_SET_NO":999,"REV_AT_EPOCH":18988,"BSTAR":-0.00081645,"MEAN_MOTION_DOT":-2.85e-6,"MEAN_MOTION_DDOT":0},{"OBJECT_NAME":"ONEWEB-0345","OBJECT_ID":"2021-083AB","EPOCH":"2025-07-29T11:58:56.976384","MEAN_MOTION":13.13468339,"ECCENTRICITY":0.0001308,"INCLINATION":87.8964,"RA_OF_ASC_NODE":24.3362,"ARG_OF_PERICENTER":86.5348,"MEAN_ANOMALY":273.593,"EPHEMERIS_TYPE":0,"CLASSIFICATION_TYPE":"U","NORAD_CAT_ID":49211,"ELEMENT_SET_NO":999,"REV_AT_EPOCH":18854,"BSTAR":-0.00040286,"MEAN_MOTION_DOT":-1.34e-6,"MEAN_MOTION_DDOT":0},{"OBJECT_NAME":"ONEWEB-0346","OBJECT_ID":"2021-083AC","EPOCH":"2025-07-29T14:16:18.560928","MEAN_MOTION":13.18686334,"ECCENTRICITY":0.0001848,"INCLINATION":87.9126,"RA_OF_ASC_NODE":39.5516,"ARG_OF_PERICENTER":109.1858,"MEAN_ANOMALY":250.9475,"EPHEMERIS_TYPE":0,"CLASSIFICATION_TYPE":"U","NORAD_CAT_ID":49212,"ELEMENT_SET_NO":999,"REV_AT_EPOCH":18746,"BSTAR":-2.036e-5,"MEAN_MOTION_DOT":5.0e-8,"MEAN_MOTION_DDOT":0},{"OBJECT_NAME":"ONEWEB-0348","OBJECT_ID":"2021-083AD","EPOCH":"2025-07-29T09:21:53.663616","MEAN_MOTION":13.20773252,"ECCENTRICITY":0.0001446,"INCLINATION":87.9286,"RA_OF_ASC_NODE":338.759,"ARG_OF_PERICENTER":113.7145,"MEAN_ANOMALY":246.414,"EPHEMERIS_TYPE":0,"CLASSIFICATION_TYPE":"U","NORAD_CAT_ID":49213,"ELEMENT_SET_NO":999,"REV_AT_EPOCH":19420,"BSTAR":0.00022234,"MEAN_MOTION_DOT":1.03e-6,"MEAN_MOTION_DDOT":0},{"OBJECT_NAME":"ONEWEB-0350","OBJECT_ID":"2021-083AE","EPOCH":"2025-07-29T21:20:49.427808","MEAN_MOTION":13.1346928,"ECCENTRICITY":0.0001459,"INCLINATION":87.8966,"RA_OF_ASC_NODE":24.2498,"ARG_OF_PERICENTER":90.639,"MEAN_ANOMALY":269.4906,"EPHEMERIS_TYPE":0,"CLASSIFICATION_TYPE":"U","NORAD_CAT_ID":49214,"ELEMENT_SET_NO":999,"REV_AT_EPOCH":18992,"BSTAR":-0.0012794,"MEAN_MOTION_DOT":-4.54e-6,"MEAN_MOTION_DDOT":0},{"OBJECT_NAME":"ONEWEB-0351","OBJECT_ID":"2021-083AF","EPOCH":"2025-07-29T14:39:53.061120","MEAN_MOTION":13.20773026,"ECCENTRICITY":0.0002126,"INCLINATION":87.9294,"RA_OF_ASC_NODE":338.6979,"ARG_OF_PERICENTER":75.1535,"MEAN_ANOMALY":284.9833,"EPHEMERIS_TYPE":0,"CLASSIFICATION_TYPE":"U","NORAD_CAT_ID":49215,"ELEMENT_SET_NO":999,"REV_AT_EPOCH":19419,"BSTAR":0.00030803,"MEAN_MOTION_DOT":1.38e-6,"MEAN_MOTION_DDOT":0},{"OBJECT_NAME":"ONEWEB-0352","OBJECT_ID":"2021-083AG","EPOCH":"2025-07-29T20:52:48.390528","MEAN_MOTION":13.13469169,"ECCENTRICITY":0.0001938,"INCLINATION":87.8966,"RA_OF_ASC_NODE":24.2955,"ARG_OF_PERICENTER":78.0164,"MEAN_ANOMALY":282.1183,"EPHEMERIS_TYPE":0,"CLASSIFICATION_TYPE":"U","NORAD_CAT_ID":49216,"ELEMENT_SET_NO":999,"REV_AT_EPOCH":19001,"BSTAR":0.00030051,"MEAN_MOTION_DOT":1.22e-6,"MEAN_MOTION_DDOT":0},{"OBJECT_NAME":"ONEWEB-0354","OBJECT_ID":"2021-083AH","EPOCH":"2025-07-29T20:43:42.154176","MEAN_MOTION":13.20771025,"ECCENTRICITY":0.0001575,"INCLINATION":87.9294,"RA_OF_ASC_NODE":338.6466,"ARG_OF_PERICENTER":100.7573,"MEAN_ANOMALY":259.3738,"EPHEMERIS_TYPE":0,"CLASSIFICATION_TYPE":"U","NORAD_CAT_ID":49217,"ELEMENT_SET_NO":999,"REV_AT_EPOCH":19557,"BSTAR":-1.5466e-5,"MEAN_MOTION_DOT":7.0e-8,"MEAN_MOTION_DDOT":0},{"OBJECT_NAME":"ONEWEB-0355","OBJECT_ID":"2021-083AJ","EPOCH":"2025-07-29T12:25:57.459360","MEAN_MOTION":13.13471354,"ECCENTRICITY":0.0001668,"INCLINATION":87.8969,"RA_OF_ASC_NODE":24.3643,"ARG_OF_PERICENTER":84.3822,"MEAN_ANOMALY":275.7497,"EPHEMERIS_TYPE":0,"CLASSIFICATION_TYPE":"U","NORAD_CAT_ID":49218,"ELEMENT_SET_NO":999,"REV_AT_EPOCH":18854,"BSTAR":-0.00060569,"MEAN_MOTION_DOT":-2.08e-6,"MEAN_MOTION_DDOT":0},{"OBJECT_NAME":"ONEWEB-0357","OBJECT_ID":"2021-083AK","EPOCH":"2025-07-29T09:44:37.396896","MEAN_MOTION":13.20771091,"ECCENTRICITY":0.0001809,"INCLINATION":87.9284,"RA_OF_ASC_NODE":338.7417,"ARG_OF_PERICENTER":92.5762,"MEAN_ANOMALY":267.5579,"EPHEMERIS_TYPE":0,"CLASSIFICATION_TYPE":"U","NORAD_CAT_ID":49219,"ELEMENT_SET_NO":999,"REV_AT_EPOCH":19420,"BSTAR":-0.00019362,"MEAN_MOTION_DOT":-6.6e-7,"MEAN_MOTION_DDOT":0},{"OBJECT_NAME":"ONEWEB-0332","OBJECT_ID":"2021-090A","EPOCH":"2025-07-29T20:38:07.888992","MEAN_MOTION":13.14503913,"ECCENTRICITY":0.000203,"INCLINATION":87.9068,"RA_OF_ASC_NODE":353.8577,"ARG_OF_PERICENTER":92.1234,"MEAN_ANOMALY":268.0129,"EPHEMERIS_TYPE":0,"CLASSIFICATION_TYPE":"U","NORAD_CAT_ID":49279,"ELEMENT_SET_NO":999,"REV_AT_EPOCH":18523,"BSTAR":0.00041166,"MEAN_MOTION_DOT":1.65e-6,"MEAN_MOTION_DDOT":0},{"OBJECT_NAME":"ONEWEB-0347","OBJECT_ID":"2021-090B","EPOCH":"2025-07-29T09:30:58.833792","MEAN_MOTION":13.20771071,"ECCENTRICITY":0.0002262,"INCLINATION":87.929,"RA_OF_ASC_NODE":338.7537,"ARG_OF_PERICENTER":98.5465,"MEAN_ANOMALY":261.5925,"EPHEMERIS_TYPE":0,"CLASSIFICATION_TYPE":"U","NORAD_CAT_ID":49280,"ELEMENT_SET_NO":999,"REV_AT_EPOCH":18843,"BSTAR":0.0002136,"MEAN_MOTION_DOT":1.0e-6,"MEAN_MOTION_DDOT":0},{"OBJECT_NAME":"ONEWEB-0349","OBJECT_ID":"2021-090C","EPOCH":"2025-07-29T10:16:26.718528","MEAN_MOTION":13.20770342,"ECCENTRICITY":0.000182,"INCLINATION":87.9282,"RA_OF_ASC_NODE":338.7522,"ARG_OF_PERICENTER":95.3902,"MEAN_ANOMALY":264.7439,"EPHEMERIS_TYPE":0,"CLASSIFICATION_TYPE":"U","NORAD_CAT_ID":49281,"ELEMENT_SET_NO":999,"REV_AT_EPOCH":18722,"BSTAR":6.3328e-5,"MEAN_MOTION_DOT":3.9e-7,"MEAN_MOTION_DDOT":0},{"OBJECT_NAME":"ONEWEB-0353","OBJECT_ID":"2021-090D","EPOCH":"2025-07-29T20:26:42.684288","MEAN_MOTION":13.14503838,"ECCENTRICITY":0.0002068,"INCLINATION":87.9068,"RA_OF_ASC_NODE":353.8462,"ARG_OF_PERICENTER":94.3661,"MEAN_ANOMALY":265.7705,"EPHEMERIS_TYPE":0,"CLASSIFICATION_TYPE":"U","NORAD_CAT_ID":49282,"ELEMENT_SET_NO":999,"REV_AT_EPOCH":18652,"BSTAR":0.00055381,"MEAN_MOTION_DOT":2.18e-6,"MEAN_MOTION_DDOT":0},{"OBJECT_NAME":"ONEWEB-0356","OBJECT_ID":"2021-090E","EPOCH":"2025-07-29T10:14:09.835008","MEAN_MOTION":13.20771291,"ECCENTRICITY":0.0002331,"INCLINATION":87.9286,"RA_OF_ASC_NODE":338.7432,"ARG_OF_PERICENTER":120.1208,"MEAN_ANOMALY":240.0156,"EPHEMERIS_TYPE":0,"CLASSIFICATION_TYPE":"U","NORAD_CAT_ID":49283,"ELEMENT_SET_NO":999,"REV_AT_EPOCH":18722,"BSTAR":-5.805e-5,"MEAN_MOTION_DOT":-1.1e-7,"MEAN_MOTION_DDOT":0}]
